#dP2022 11 29 12  0  0.00000000      96 __u+U ITR00 EXT  IAC
## 2238 216000.00000000   900.00000000 59912 0.5000000000000
+  118   C06C07C08C09C10C11C12C13C14C16C19C20C21C22C23C24C25
+        C26C27C28C29C30C32C33C34C35C36C37C38C39C40C41C42C43
+        C44C45C46E01E02E03E04E05E07E08E09E10E11E12E13E14E15
+        E18E19E21E24E25E26E27E30E31E33E34E36G01G02G03G04G05
+        G06G07G08G09G10G11G12G13G14G15G16G17G18G19G20G21G22
+        G23G24G25G26G27G29G30G31G32J02J03J04R01R02R03R04R05
+        R07R08R09R11R12R13R14R15R17R18R19R20R21R22R24R25  0
++        11 10 13 10  9  8  7 13 10 10  8  9  8  7  9  8  8
++         8  9 11  7  8  8  9  8  8  9 10 11  9  7  8  8  9
++         9 10  8  8  8  9  9  8  7  8  8  8  9  8  7  8  7
++         9  7  8  7  7  8  7  8  7  8  8 10  7  9  8  8  7
++         7  8  8  8  8  8  8 10 11  7  8 10  7  8  8  8  8
++         7  7 10  8  7  7  8  7  7 12  7 11  8  9  8  8  8
++         9  9  9  9  8 10  8  7  9  8  9  9  9  8  7  8  0
%c M  cc GPS ccc cccc cccc cccc cccc ccccc ccccc ccccc ccccc
%c cc cc ccc ccc cccc cccc cccc cccc ccccc ccccc ccccc ccccc
%f  0.0000000  0.000000000  0.00000000000  0.000000000000000
%f  0.0000000  0.000000000  0.00000000000  0.000000000000000
%i    0    0    0    0      0      0      0      0         0
%i    0    0    0    0      0      0      0      0         0
/* IAC                                ULTRA-RAPID PREDICTION
/* S/V CLOCKS ARE ALIGNED TO GNSS TIME                      
/* G:C1WC2W R:C1PC2P E:C1XC5X C:C2IC6I J:C1CC2S             
/* PCV:IGS14_2233 OL/AL:FES2004  NONE     YN ORB:CoN CLK:CoN
*  2022 11 29 12 15  0.00000000
PC06 -10089.291996  40792.902607  -1226.647620    227.231262
PC07  -3194.568306  29145.860334  30393.297213    146.355198
PC08 -18480.207836  24070.043500 -29361.029494    517.764983
PC09  -5538.717225  40891.740324   7508.150721   -795.078032
PC10   5066.606242  31904.932030  27624.688353     60.264434
PC11  -1403.095514  27782.562446  -2339.017914   -264.664316
PC12 -11541.709202  20964.053921  14412.795595    322.924426
PC13  -9515.687011  25043.890082 -32484.240757    145.570375
PC14   6567.729221  19816.573569 -18529.197584    219.330251
PC16 -13154.798353  39348.356072  -6465.004768    109.810140
PC19 -15521.669267 -20083.333283  11603.191658   -908.646640
PC20   1706.002073 -17036.978936  22037.528842    822.439481
PC21 -19191.271958   3461.081546 -19948.035742   -926.831114
PC22 -24594.002028 -11682.553835  -6085.251429   -767.308258
PC23  22078.368316   2851.617527  16821.086179   -874.005645
PC24 -14764.097269  18693.755894  14548.259261   -742.016501
PC25   6807.674447  14786.119676  22656.222114     31.927957
PC26 -25011.570041  12418.698072   -390.684770    -42.742784
PC27  14877.089154 -13000.966373 -19727.377049     58.676567
PC28  14971.242560   7265.354537 -22394.611547     41.514183
PC29  -6836.481140 -24493.764259  11489.724287     47.003855
PC30   5833.800995 -26509.393953  -6524.592492      1.110413
PC32  19247.277898  -3539.505319  19903.243121   -700.380164
PC33  15569.048708  20013.488984 -11663.876309   -902.484974
PC34  -5134.174981  26882.757246   5391.677574     50.000886
PC35 -14936.611188  -8579.378832  21956.496104    110.261902
PC36  -5812.070571 -15230.861673 -22629.314337   -804.801883
PC37  25583.158213 -10980.421213   1680.217462   -901.272440
PC38 -24524.630581  25469.678922 -23092.770880     41.495072
PC39 -13521.495366  38177.783221 -11357.072673     -0.953104
PC40  -7363.511915  23467.129785  34285.939771     -9.108292
PC41  24601.108581  11951.355527   5574.264421   -326.603195
PC42  -2933.248141  16485.744222 -22288.714626   -755.136507
PC43   6357.901826  24923.976179 -10802.179931     27.517866
PC44 -14563.078886  13283.603709  19735.097056    129.176979
PC45 -22289.556234  -2463.764592 -16630.391127    -28.414534
PC46  13039.679160 -18805.608925 -15943.683552    -16.211980
PE01 -14169.076133  13788.560920  22035.623184   -572.499283
PE02  13860.943090 -13896.088450 -22150.741544      5.528175
PE03   4617.562766 -22045.892913  19191.969715   -624.785396
PE04  10163.150416  27576.635053  -3503.855748     -3.266016
PE05  17032.905970  -3417.459644  23960.994548   -119.959219
PE07 -19335.650416 -16918.443245 -14699.471672     -3.164135
PE08 -10240.924287 -27542.659383   3532.500177   -640.331494
PE09  19257.608042  17106.205377  14586.354871   -746.219964
PE10   7660.495277  15872.337434 -23785.106699   -494.235468
PE11  15344.131865   5893.653768 -24621.527830   1099.995463
PE12   -465.672955  22493.315967 -19227.213569   -303.645846
PE13 -14729.633938  -6752.162029  24779.134311    430.504775
PE14 -12263.266369  12069.674468  18344.228593     70.344856
PE15    714.580268 -22621.432306  19085.835722    704.272082
PE18  19680.635504  -4048.435533 -23996.756696   -687.031771
PE19  -6599.419687  20063.073794 -20737.050538  -3872.492572
PE21 -27777.404358   3980.682942   9438.107821   -497.434213
PE24  26047.298303   9528.495973  10287.239306   -974.024857
PE25  27886.635270  -3775.110994  -9152.575271   -593.790580
PE26 -21511.764638  13567.924517  15160.156189  -1896.180802
PE27 -26610.844591  -8879.641590  -9467.273648   -451.135488
PE30  -8895.787431 -16585.812727 -22858.702966  -1037.446646
PE31   9765.280273  16396.628130  22631.890242   -509.385918
PE33 -15650.842045  25031.455591  -2145.391172   -455.643192
PE34  15494.310137 -25104.273646   2329.016542    -17.060383
PE36  21377.774102 -12910.431119 -15883.262761   -467.952355
PG01 -13156.729576  22039.194406  -6389.785486    244.783096
PG02   9199.364261 -23702.731663   8661.884371   -635.569542
PG03  -9454.209436  12990.980485 -21253.548097   -374.642984
PG04  -2916.097797  22227.176906 -14161.019604    -77.821894
PG05  21822.606369  -6793.195905  13454.860064   -106.148236
PG06  15400.022774   3440.319156 -21310.230157    529.415508
PG07    -75.560106  19950.487750  17710.534201    281.285512
PG08 -10064.639468  13334.952655  20516.777420    -96.164961
PG09   6847.441635  25286.097278  -4310.523701   -261.359596
PG10 -21118.882765 -11498.484240  11784.981464    -13.938074
PG11  20767.272045  -7723.020589 -14611.699023    -47.772141
PG12  11129.167354 -12241.571869 -21027.049354   -309.966484
PG13  14141.441324  -5089.999365  21714.193232    433.181854
PG14  18985.132808  13315.679217  13061.378190    -76.101844
PG15   8624.603378 -14900.596460  19708.393163     -8.350190
PG16 -24803.621820    596.418922   9816.029003   -526.687881
PG17  12606.881150  21570.188351  -8451.276146    681.910230
PG18  -1007.144601 -18613.922168  18864.539743    -39.976747
PG19  15693.886705  12410.988186 -17830.467583    243.806424
PG20  26382.507161   -992.154001   1385.742291    466.883129
PG21 -16968.651920  19576.793642   4081.058495    155.000769
PG22 -16126.373066  -9416.636830 -18533.782010    374.421796
PG23 -11242.106719 -14691.871764  19105.629459     -0.616255
PG24  13979.077855 -22278.590352  -1522.136298     38.248731
PG25  -1057.504985 -15706.910254 -21713.955633    397.282336
PG26 -26382.824114  -4025.720406  -1816.354822    237.152065
PG27 -15403.203789    848.242296  21446.480299    166.367849
PG29  -3242.709918 -25620.213542  -6065.115106   -570.553350
PG30  10521.809601  11930.544297  21342.889364   -536.152794
PG31 -17090.022628  -2354.960182 -20468.150524   -201.708485
PG32 -15436.848429 -18709.946856 -10900.413187   -312.408544
PJ02 -29583.911868  22906.667058  24442.950855     -0.214097
PJ03 -29796.542062  27239.582152  17157.648118     -5.592802
PJ04 -26246.063716  20272.685117 -20857.845353    113.961157
PR01   9237.423486  18534.527969 -14901.955673     18.693099
PR02  18884.920926  16754.885595   3411.289818    -23.390486
PR03  17048.405782   4636.983443  18408.623878     68.150033
PR04   5665.522585  -9517.743863  23000.843464    166.704626
PR05  -8685.871574 -18714.959344  15025.909773    103.711288
PR07 -16758.795382  -4136.611554 -18771.240766     45.192116
PR08  -5598.739428   9683.741502 -22871.072236    -68.328315
PR09 -17267.864798  -4251.016913 -18237.794588     90.244541
PR11 -18771.402891  11699.811440  12702.827938     18.083403
PR12   -651.642100  11501.342849  22783.136462     23.244990
PR13  15921.832840   4988.497191  19275.500942    -29.416917
PR14  24723.094400  -5329.904237   3384.763913     24.087635
PR15  18139.205048 -11770.736147 -13513.033142     92.669925
PR17  11914.769394  -6539.754068 -21560.644791    582.434765
PR18  10555.359296 -20911.232992 -10133.315308     54.354767
PR19   5079.914111 -24426.484541   5298.408536   -212.713821
PR20  -5801.828968 -13007.687240  21185.185957    -83.036753
PR21 -12055.598547   8253.641658  20924.386004   -353.518274
PR22 -11322.187293  20832.754139   9423.613062     19.692876
PR24   6895.159106  12324.678459 -21223.499147    129.544800
PR25 -12456.721217   5470.292913  21591.363716     47.580023
EOF
